[{"OBJECT_NAME":"SHIYAN-1 (SY-1)","OBJECT_ID":"2004-012A","EPOCH":"2026-03-09T17:40:34.066560","MEAN_MOTION":15.31043463,"ECCENTRICITY":0.00058726,"INCLINATION":97.8764,"RA_OF_ASC_NODE":140.5238,"ARG_OF_PERICENTER":23.6952,"MEAN_ANOMALY":336.4557,"EPHEMERIS_TYPE":0,"CLASSIFICATION_TYPE":"U","NORAD_CAT_ID":28220,"ELEMENT_SET_NO":999,"REV_AT_EPOCH":19586,"BSTAR":0.00054854449,"MEAN_MOTION_DOT":0.00016393,"MEAN_MOTION_DDOT":0},{"OBJECT_NAME":"STARLINK-34877","OBJECT_ID":"2025-210J","EPOCH":"2026-03-09T21:17:44.028096","MEAN_MOTION":15.30218042,"ECCENTRICITY":6.637e-5,"INCLINATION":53.158,"RA_OF_ASC_NODE":306.0005,"ARG_OF_PERICENTER":109.961,"MEAN_ANOMALY":250.1462,"EPHEMERIS_TYPE":0,"CLASSIFICATION_TYPE":"U","NORAD_CAT_ID":65630,"ELEMENT_SET_NO":999,"REV_AT_EPOCH":2776,"BSTAR":0.0011172337,"MEAN_MOTION_DOT":0.00032895,"MEAN_MOTION_DDOT":0}]
